[{"OBJECT_NAME":"STARLINK-3660","OBJECT_ID":"2022-025X","EPOCH":"2026-03-09T05:17:47.321376","MEAN_MOTION":15.08834026,"ECCENTRICITY":0.0001665,"INCLINATION":53.2185,"RA_OF_ASC_NODE":21.2343,"ARG_OF_PERICENTER":92.0812,"MEAN_ANOMALY":268.0371,"EPHEMERIS_TYPE":0,"CLASSIFICATION_TYPE":"U","NORAD_CAT_ID":51977,"ELEMENT_SET_NO":999,"REV_AT_EPOCH":22126,"BSTAR":4.1805961e-5,"MEAN_MOTION_DOT":3.77e-6,"MEAN_MOTION_DDOT":0},{"OBJECT_NAME":"PSLV DEB","OBJECT_ID":"2001-049CY","EPOCH":"2026-03-09T18:20:37.296384","MEAN_MOTION":15.08389698,"ECCENTRICITY":0.00190632,"INCLINATION":97.9861,"RA_OF_ASC_NODE":156.2845,"ARG_OF_PERICENTER":340.3269,"MEAN_ANOMALY":19.722,"EPHEMERIS_TYPE":0,"CLASSIFICATION_TYPE":"U","NORAD_CAT_ID":27152,"ELEMENT_SET_NO":999,"REV_AT_EPOCH":30598,"BSTAR":0.00053695108,"MEAN_MOTION_DOT":8.318e-5,"MEAN_MOTION_DDOT":0}]
